STARLINK-4756           
1 53826U 22114J   25209.60933691 -.00000860  00000+0 -35970-4 0  9992
2 53826  53.2170 230.0039 0000999  79.7509 280.3596 15.08838027159005
STARLINK-4764           
1 53827U 22114K   25210.21655693 -.00000740  00000+0 -28420-4 0  9994
2 53827  53.2163 227.3936 0001052  74.9508 285.1601 15.08832356158558
STARLINK-4760           
1 53828U 22114L   25209.60565114  .00000246  00000+0  33508-4 0  9996
2 53828  53.2164 229.9815 0000823  61.9717 298.1358 15.08839991159003
STARLINK-4759           
1 53829U 22114M   25209.35174997 -.00000534  00000+0 -15491-4 0  9997
2 53829  53.2168 231.2378 0001123  80.8751 279.2368 15.08832639158967
STARLINK-4761           
1 53830U 22114N   25210.19444379 -.00000771  00000+0 -30349-4 0  9999
2 53830  53.2162 227.2597 0001031  80.3054 279.8054 15.08835275158552
STARLINK-4649           
1 53831U 22114P   25209.34808174  .00001198  00000+0  93358-4 0  9993
2 53831  53.2161 231.2158 0001153  78.4584 281.6538 15.08830688158967
STARLINK-4747           
1 53832U 22114Q   25209.59091025 -.00000130  00000+0  99424-5 0  9997
2 53832  53.2162 229.8901 0001033  79.5477 280.5632 15.08840197159003
STARLINK-4771           
1 53833U 22114R   25209.60292587 -.00000463  00000+0 -10992-4 0  9998
2 53833  53.2162 229.9641 0001223  87.4320 272.6812 15.08835761159005
STARLINK-4737           
1 53834U 22114S   25209.78226630  .00000097  00000+0  24189-4 0  9998
2 53834  53.2162 228.9517 0000974  80.0999 280.0103 15.08838851158491
STARLINK-4783           
1 53835U 22114T   25210.19075999 -.00000665  00000+0 -23688-4 0  9992
2 53835  53.2162 227.2360 0001023  77.2549 282.8557 15.08834355158550
STARLINK-4778           
1 53836U 22114U   25209.76484780  .00000833  00000+0  70403-4 0  9998
2 53836  53.2161 219.5633 0001214  79.8217 280.2912 15.08841239158623
STARLINK-4776           
1 53837U 22114V   25209.58722886 -.00002339  00000+0 -12888-3 0  9998
2 53837  53.2170 229.8683 0001157  79.1223 280.9899 15.08843251159009
STARLINK-4773           
1 53838U 22114W   25209.56244464 -.00000150  00000+0  86355-5 0  9998
2 53838  53.2162 220.4374 0001092  79.5312 280.5803 15.08839675159136
STARLINK-4784           
1 53839U 22114X   25209.76853417  .00000506  00000+0  49874-4 0  9993
2 53839  53.2163 219.5909 0001005  66.7436 293.3662 15.08838359158626
STARLINK-4766           
1 53840U 22114Y   25209.55234745  .00000811  00000+0  69048-4 0  9993
2 53840  53.2158 220.3733 0001116  77.0228 283.0889 15.08839600159138
STARLINK-4750           
1 53841U 22114Z   25209.49253588  .00000773  00000+0  66635-4 0  9999
2 53841  53.2163 220.7106 0001022  78.8820 281.2287 15.08840303159129
STARLINK-4754           
1 53842U 22114AA  25209.61026299 -.00000661  00000+0 -23468-4 0  9996
2 53842  53.2162 220.0247 0001113  85.1070 275.0050 15.08842634159147
