[{"OBJECT_NAME":"STARLINK-4756","OBJECT_ID":"2022-114J","EPOCH":"2025-07-28T14:37:26.709024","MEAN_MOTION":15.08838027,"ECCENTRICITY":9.99e-5,"INCLINATION":53.217,"RA_OF_ASC_NODE":230.0039,"ARG_OF_PERICENTER":79.7509,"MEAN_ANOMALY":280.3596,"EPHEMERIS_TYPE":0,"CLASSIFICATION_TYPE":"U","NORAD_CAT_ID":53826,"ELEMENT_SET_NO":999,"REV_AT_EPOCH":15900,"BSTAR":-3.597e-5,"MEAN_MOTION_DOT":-8.6e-6,"MEAN_MOTION_DDOT":0},{"OBJECT_NAME":"STARLINK-4764","OBJECT_ID":"2022-114K","EPOCH":"2025-07-29T05:11:50.518752","MEAN_MOTION":15.08832356,"ECCENTRICITY":0.0001052,"INCLINATION":53.2163,"RA_OF_ASC_NODE":227.3936,"ARG_OF_PERICENTER":74.9508,"MEAN_ANOMALY":285.1601,"EPHEMERIS_TYPE":0,"CLASSIFICATION_TYPE":"U","NORAD_CAT_ID":53827,"ELEMENT_SET_NO":999,"REV_AT_EPOCH":15855,"BSTAR":-2.842e-5,"MEAN_MOTION_DOT":-7.4e-6,"MEAN_MOTION_DDOT":0},{"OBJECT_NAME":"STARLINK-4760","OBJECT_ID":"2022-114L","EPOCH":"2025-07-28T14:32:08.258496","MEAN_MOTION":15.08839991,"ECCENTRICITY":8.23e-5,"INCLINATION":53.2164,"RA_OF_ASC_NODE":229.9815,"ARG_OF_PERICENTER":61.9717,"MEAN_ANOMALY":298.1358,"EPHEMERIS_TYPE":0,"CLASSIFICATION_TYPE":"U","NORAD_CAT_ID":53828,"ELEMENT_SET_NO":999,"REV_AT_EPOCH":15900,"BSTAR":3.3508e-5,"MEAN_MOTION_DOT":2.46e-6,"MEAN_MOTION_DDOT":0},{"OBJECT_NAME":"STARLINK-4759","OBJECT_ID":"2022-114M","EPOCH":"2025-07-28T08:26:31.197408","MEAN_MOTION":15.08832639,"ECCENTRICITY":0.0001123,"INCLINATION":53.2168,"RA_OF_ASC_NODE":231.2378,"ARG_OF_PERICENTER":80.8751,"MEAN_ANOMALY":279.2368,"EPHEMERIS_TYPE":0,"CLASSIFICATION_TYPE":"U","NORAD_CAT_ID":53829,"ELEMENT_SET_NO":999,"REV_AT_EPOCH":15896,"BSTAR":-1.5491e-5,"MEAN_MOTION_DOT":-5.34e-6,"MEAN_MOTION_DDOT":0},{"OBJECT_NAME":"STARLINK-4761","OBJECT_ID":"2022-114N","EPOCH":"2025-07-29T04:39:59.943456","MEAN_MOTION":15.08835275,"ECCENTRICITY":0.0001031,"INCLINATION":53.2162,"RA_OF_ASC_NODE":227.2597,"ARG_OF_PERICENTER":80.3054,"MEAN_ANOMALY":279.8054,"EPHEMERIS_TYPE":0,"CLASSIFICATION_TYPE":"U","NORAD_CAT_ID":53830,"ELEMENT_SET_NO":999,"REV_AT_EPOCH":15855,"BSTAR":-3.0349e-5,"MEAN_MOTION_DOT":-7.71e-6,"MEAN_MOTION_DDOT":0},{"OBJECT_NAME":"STARLINK-4649","OBJECT_ID":"2022-114P","EPOCH":"2025-07-28T08:21:14.262336","MEAN_MOTION":15.08830688,"ECCENTRICITY":0.0001153,"INCLINATION":53.2161,"RA_OF_ASC_NODE":231.2158,"ARG_OF_PERICENTER":78.4584,"MEAN_ANOMALY":281.6538,"EPHEMERIS_TYPE":0,"CLASSIFICATION_TYPE":"U","NORAD_CAT_ID":53831,"ELEMENT_SET_NO":999,"REV_AT_EPOCH":15896,"BSTAR":9.3358e-5,"MEAN_MOTION_DOT":1.198e-5,"MEAN_MOTION_DDOT":0},{"OBJECT_NAME":"STARLINK-4747","OBJECT_ID":"2022-114Q","EPOCH":"2025-07-28T14:10:54.645600","MEAN_MOTION":15.08840197,"ECCENTRICITY":0.0001033,"INCLINATION":53.2162,"RA_OF_ASC_NODE":229.8901,"ARG_OF_PERICENTER":79.5477,"MEAN_ANOMALY":280.5632,"EPHEMERIS_TYPE":0,"CLASSIFICATION_TYPE":"U","NORAD_CAT_ID":53832,"ELEMENT_SET_NO":999,"REV_AT_EPOCH":15900,"BSTAR":9.9424e-6,"MEAN_MOTION_DOT":-1.3e-6,"MEAN_MOTION_DDOT":0},{"OBJECT_NAME":"STARLINK-4771","OBJECT_ID":"2022-114R","EPOCH":"2025-07-28T14:28:12.795168","MEAN_MOTION":15.08835761,"ECCENTRICITY":0.0001223,"INCLINATION":53.2162,"RA_OF_ASC_NODE":229.9641,"ARG_OF_PERICENTER":87.432,"MEAN_ANOMALY":272.6812,"EPHEMERIS_TYPE":0,"CLASSIFICATION_TYPE":"U","NORAD_CAT_ID":53833,"ELEMENT_SET_NO":999,"REV_AT_EPOCH":15900,"BSTAR":-1.0992e-5,"MEAN_MOTION_DOT":-4.63e-6,"MEAN_MOTION_DDOT":0},{"OBJECT_NAME":"STARLINK-4737","OBJECT_ID":"2022-114S","EPOCH":"2025-07-28T18:46:27.808320","MEAN_MOTION":15.08838851,"ECCENTRICITY":9.74e-5,"INCLINATION":53.2162,"RA_OF_ASC_NODE":228.9517,"ARG_OF_PERICENTER":80.0999,"MEAN_ANOMALY":280.0103,"EPHEMERIS_TYPE":0,"CLASSIFICATION_TYPE":"U","NORAD_CAT_ID":53834,"ELEMENT_SET_NO":999,"REV_AT_EPOCH":15849,"BSTAR":2.4189e-5,"MEAN_MOTION_DOT":9.7e-7,"MEAN_MOTION_DDOT":0},{"OBJECT_NAME":"STARLINK-4783","OBJECT_ID":"2022-114T","EPOCH":"2025-07-29T04:34:41.663136","MEAN_MOTION":15.08834355,"ECCENTRICITY":0.0001023,"INCLINATION":53.2162,"RA_OF_ASC_NODE":227.236,"ARG_OF_PERICENTER":77.2549,"MEAN_ANOMALY":282.8557,"EPHEMERIS_TYPE":0,"CLASSIFICATION_TYPE":"U","NORAD_CAT_ID":53835,"ELEMENT_SET_NO":999,"REV_AT_EPOCH":15855,"BSTAR":-2.3688e-5,"MEAN_MOTION_DOT":-6.65e-6,"MEAN_MOTION_DDOT":0},{"OBJECT_NAME":"STARLINK-4778","OBJECT_ID":"2022-114U","EPOCH":"2025-07-28T18:21:22.849920","MEAN_MOTION":15.08841239,"ECCENTRICITY":0.0001214,"INCLINATION":53.2161,"RA_OF_ASC_NODE":219.5633,"ARG_OF_PERICENTER":79.8217,"MEAN_ANOMALY":280.2912,"EPHEMERIS_TYPE":0,"CLASSIFICATION_TYPE":"U","NORAD_CAT_ID":53836,"ELEMENT_SET_NO":999,"REV_AT_EPOCH":15862,"BSTAR":7.0403e-5,"MEAN_MOTION_DOT":8.33e-6,"MEAN_MOTION_DDOT":0},{"OBJECT_NAME":"STARLINK-4776","OBJECT_ID":"2022-114V","EPOCH":"2025-07-28T14:05:36.573504","MEAN_MOTION":15.08843251,"ECCENTRICITY":0.0001157,"INCLINATION":53.217,"RA_OF_ASC_NODE":229.8683,"ARG_OF_PERICENTER":79.1223,"MEAN_ANOMALY":280.9899,"EPHEMERIS_TYPE":0,"CLASSIFICATION_TYPE":"U","NORAD_CAT_ID":53837,"ELEMENT_SET_NO":999,"REV_AT_EPOCH":15900,"BSTAR":-0.00012888,"MEAN_MOTION_DOT":-2.339e-5,"MEAN_MOTION_DDOT":0},{"OBJECT_NAME":"STARLINK-4773","OBJECT_ID":"2022-114W","EPOCH":"2025-07-28T13:29:55.216896","MEAN_MOTION":15.08839675,"ECCENTRICITY":0.0001092,"INCLINATION":53.2162,"RA_OF_ASC_NODE":220.4374,"ARG_OF_PERICENTER":79.5312,"MEAN_ANOMALY":280.5803,"EPHEMERIS_TYPE":0,"CLASSIFICATION_TYPE":"U","NORAD_CAT_ID":53838,"ELEMENT_SET_NO":999,"REV_AT_EPOCH":15913,"BSTAR":8.6355e-6,"MEAN_MOTION_DOT":-1.5e-6,"MEAN_MOTION_DDOT":0},{"OBJECT_NAME":"STARLINK-4784","OBJECT_ID":"2022-114X","EPOCH":"2025-07-28T18:26:41.352288","MEAN_MOTION":15.08838359,"ECCENTRICITY":0.0001005,"INCLINATION":53.2163,"RA_OF_ASC_NODE":219.5909,"ARG_OF_PERICENTER":66.7436,"MEAN_ANOMALY":293.3662,"EPHEMERIS_TYPE":0,"CLASSIFICATION_TYPE":"U","NORAD_CAT_ID":53839,"ELEMENT_SET_NO":999,"REV_AT_EPOCH":15862,"BSTAR":4.9874e-5,"MEAN_MOTION_DOT":5.06e-6,"MEAN_MOTION_DDOT":0},{"OBJECT_NAME":"STARLINK-4766","OBJECT_ID":"2022-114Y","EPOCH":"2025-07-28T13:15:22.819680","MEAN_MOTION":15.088396,"ECCENTRICITY":0.0001116,"INCLINATION":53.2158,"RA_OF_ASC_NODE":220.3733,"ARG_OF_PERICENTER":77.0228,"MEAN_ANOMALY":283.0889,"EPHEMERIS_TYPE":0,"CLASSIFICATION_TYPE":"U","NORAD_CAT_ID":53840,"ELEMENT_SET_NO":999,"REV_AT_EPOCH":15913,"BSTAR":6.9048e-5,"MEAN_MOTION_DOT":8.11e-6,"MEAN_MOTION_DDOT":0},{"OBJECT_NAME":"STARLINK-4750","OBJECT_ID":"2022-114Z","EPOCH":"2025-07-28T11:49:15.100032","MEAN_MOTION":15.08840303,"ECCENTRICITY":0.0001022,"INCLINATION":53.2163,"RA_OF_ASC_NODE":220.7106,"ARG_OF_PERICENTER":78.882,"MEAN_ANOMALY":281.2287,"EPHEMERIS_TYPE":0,"CLASSIFICATION_TYPE":"U","NORAD_CAT_ID":53841,"ELEMENT_SET_NO":999,"REV_AT_EPOCH":15912,"BSTAR":6.6635e-5,"MEAN_MOTION_DOT":7.73e-6,"MEAN_MOTION_DDOT":0},{"OBJECT_NAME":"STARLINK-4754","OBJECT_ID":"2022-114AA","EPOCH":"2025-07-28T14:38:46.722336","MEAN_MOTION":15.08842634,"ECCENTRICITY":0.0001113,"INCLINATION":53.2162,"RA_OF_ASC_NODE":220.0247,"ARG_OF_PERICENTER":85.107,"MEAN_ANOMALY":275.005,"EPHEMERIS_TYPE":0,"CLASSIFICATION_TYPE":"U","NORAD_CAT_ID":53842,"ELEMENT_SET_NO":999,"REV_AT_EPOCH":15914,"BSTAR":-2.3468e-5,"MEAN_MOTION_DOT":-6.61e-6,"MEAN_MOTION_DDOT":0}]
